0 METEOR 2-5 DEB
1 38276U 79095BW  13285.11390245  .00001763  00000-0  10039-2 0  1163
2 38276 081.2004 052.6598 0009866 006.9258 353.2436 14.09401996742728
0 METEOR 2-5 DEB
1 38276U 79095BW  13286.10776982  .00001827  00000-0  10403-2 0  1176
2 38276 081.2039 051.6871 0009443 356.8937 003.2491 14.09407399742862
0 METEOR 2-5 DEB
1 38276U 79095BW  13287.10163956  .00001890  00000-0  10767-2 0  1182
2 38276 081.2054 050.7193 0008570 002.0188 358.1257 14.09412519743003
0 METEOR 2-5 DEB
1 38276U 79095BW  13290.01225388  .00002131  00000-0  12139-2 0  1199
2 38276 081.2057 047.8808 0010733 007.9162 352.2493 14.09428472743413
0 METEOR 2-5 DEB
1 38276U 79095BW  13291.64501162  .00002397  00000-0  13656-2 0  1207
2 38276 081.2014 046.2880 0015449 355.4169 004.6906 14.09440487743648
0 METEOR 2-5 DEB
1 38276U 79095BW  13292.07094746  .00002616  00000-0  14913-2 0  1212
2 38276 081.2058 045.8636 0009742 346.3112 013.8803 14.09445906743702
0 METEOR 2-5 DEB
1 38276U 79095BW  13293.06477589  .00002683  00000-0  15298-2 0  1224
2 38276 081.2071 044.8918 0009097 343.2351 016.8748 14.09452410743847
0 METEOR 2-5 DEB
1 38276U 79095BW  13296.04629163  .00003046  00000-0  17371-2 0  1231
2 38276 081.2071 041.9810 0009098 334.8128 025.3226 14.09473970744262
